IRIDIUM 144             
1 43249U 18030A   23297.51800062  .00000370  00000+0  12503-3 0  9992
2 43249  86.3973 334.4343 0002238  97.0989 263.0461 14.34219969291586
IRIDIUM 149             
1 43250U 18030B   23297.38480102  .00000362  00000+0  12229-3 0  9994
2 43250  86.3972 334.4677 0002272 101.1529 258.9922 14.34221482291580
IRIDIUM 157             
1 43251U 18030C   23297.47360298  .00000355  00000+0  11969-3 0  9990
2 43251  86.3974 334.4624 0002302  87.4476 272.6983 14.34219945291576
IRIDIUM 140             
1 43252U 18030D   23297.49262886  .00000349  00000+0  11755-3 0  9993
2 43252  86.3973 334.4692 0002001  98.6893 261.4529 14.34219767291635
IRIDIUM 145             
1 43253U 18030E   23297.47994395  .00000344  00000+0  11585-3 0  9995
2 43253  86.3972 334.4489 0002345 102.0492 258.0967 14.34220666291565
IRIDIUM 146             
1 43254U 18030F   23297.39114620  .00000366  00000+0  12353-3 0  9990
2 43254  86.3973 334.5014 0002387  99.9143 260.2322 14.34220896291560
IRIDIUM 148             
1 43255U 18030G   23297.49897248  .00000061  00000+0  14836-4 0  9997
2 43255  86.3976 334.4851 0002460  96.4270 263.7206 14.34218954291614
IRIDIUM 142             
1 43256U 18030H   23297.46726114  .00000384  00000+0  13021-3 0  9990
2 43256  86.3972 334.4224 0002363  95.4588 264.6877 14.34218555291574
